{"type": "FeatureCollection", "features": [ {"type": "Feature", "properties": {"norad_id": 34014, "name": "COSMOS 2251 DEB", "group": "cosmos-2251-debris", "lat": 27.350849592443993, "lon": 100.56189990568946, "alt_km": 645.9463455444456, "timestamp": "2025-12-08T10:52:03.341768+00:00", "meta": {"OBJECT_NAME": "COSMOS 2251 DEB", "OBJECT_ID": "1993-036GZ", "EPOCH": "2025-12-07T23:03:45.253152", "MEAN_MOTION": 14.73042201, "ECCENTRICITY": 0.00368814, "INCLINATION": 74.0177, "RA_OF_ASC_NODE": 290.0463, "ARG_OF_PERICENTER": 71.0052, "MEAN_ANOMALY": 352.6096, "EPHEMERIS_TYPE": 0, "CLASSIFICATION_TYPE": "U", "NORAD_CAT_ID": 34014, "ELEMENT_SET_NO": 999, "REV_AT_EPOCH": 89233, "BSTAR": 0.0013645496, "MEAN_MOTION_DOT": 8.847e-05, "MEAN_MOTION_DDOT": 0}, "tle": {"line1": "1 34014U 93036GZ  25341.96094043  .00008847  00000+0  13645-2 0  9990", "line2": "2 34014  74.0177 290.0463 0036881  71.0052 352.6096 14.73042201892335"}}, "geometry": {"type": "Point", "coordinates": [100.56189990568946, 27.350849592443993]}}, {"type": "Feature", "properties": {"norad_id": 34015, "name": "COSMOS 2251 DEB", "group": "cosmos-2251-debris", "lat": 67.5903229394116, "lon": -56.39512338093001, "alt_km": 699.6381034504457, "timestamp": "2025-12-08T10:52:03.341778+00:00", "meta": {"OBJECT_NAME": "COSMOS 2251 DEB", "OBJECT_ID": "1993-036HA", "EPOCH": "2025-12-07T23:25:17.714208", "MEAN_MOTION": 14.60152501, "ECCENTRICITY": 0.00211207, "INCLINATION": 74.0231, "RA_OF_ASC_NODE": 168.5239, "ARG_OF_PERICENTER": 265.6618, "MEAN_ANOMALY": 214.3969, "EPHEMERIS_TYPE": 0, "CLASSIFICATION_TYPE": "U", "NORAD_CAT_ID": 34015, "ELEMENT_SET_NO": 999, "REV_AT_EPOCH": 88461, "BSTAR": 0.0016689351, "MEAN_MOTION_DOT": 8.04e-05, "MEAN_MOTION_DDOT": 0}, "tle": {"line1": "1 34015U 93036HA  25341.97589947  .00008040  00000+0  16689-2 0  9990", "line2": "2 34015  74.0231 168.5239 0021120 265.6618 214.3969 14.60152501884612"}}, "geometry": {"type": "Point", "coordinates": [-56.39512338093001, 67.5903229394116]}}, {"type": "Feature", "properties": {"norad_id": 34018, "name": "COSMOS 2251 DEB", "group": "cosmos-2251-debris", "lat": 24.34703021489696, "lon": 106.88111403936416, "alt_km": 1022.556132477358, "timestamp": "2025-12-08T10:52:03.341788+00:00", "meta": {"OBJECT_NAME": "COSMOS 2251 DEB", "OBJECT_ID": "1993-036HD", "EPOCH": "2025-12-07T17:55:44.088384", "MEAN_MOTION": 13.81061093, "ECCENTRICITY": 0.0264045, "INCLINATION": 73.8773, "RA_OF_ASC_NODE": 100.5561, "ARG_OF_PERICENTER": 137.3845, "MEAN_ANOMALY": 343.2996, "EPHEMERIS_TYPE": 0, "CLASSIFICATION_TYPE": "U", "NORAD_CAT_ID": 34018, "ELEMENT_SET_NO": 999, "REV_AT_EPOCH": 84588, "BSTAR": 0.0010073104, "MEAN_MOTION_DOT": 1.365e-05, "MEAN_MOTION_DDOT": 0}, "tle": {"line1": "1 34018U 93036HD  25341.74703806  .00001365  00000+0  10073-2 0  9994", "line2": "2 34018  73.8773 100.5561 0264045 137.3845 343.2996 13.81061093845884"}}, "geometry": {"type": "Point", "coordinates": [106.88111403936416, 24.34703021489696]}}, {"type": "Feature", "properties": {"norad_id": 34019, "name": "COSMOS 2251 DEB", "group": "cosmos-2251-debris", "lat": 55.05062856732906, "lon": 82.94021416361424, "alt_km": 817.997498566263, "timestamp": "2025-12-08T10:52:03.341798+00:00", "meta": {"OBJECT_NAME": "COSMOS 2251 DEB", "OBJECT_ID": "1993-036HE", "EPOCH": "2025-12-07T23:43:32.943072", "MEAN_MOTION": 14.33900685, "ECCENTRICITY": 0.0062733, "INCLINATION": 73.9551, "RA_OF_ASC_NODE": 59.4777, "ARG_OF_PERICENTER": 241.396, "MEAN_ANOMALY": 301.6895, "EPHEMERIS_TYPE": 0, "CLASSIFICATION_TYPE": "U", "NORAD_CAT_ID": 34019, "ELEMENT_SET_NO": 999, "REV_AT_EPOCH": 87452, "BSTAR": 0.001343426, "MEAN_MOTION_DOT": 3.802e-05, "MEAN_MOTION_DDOT": 0}, "tle": {"line1": "1 34019U 93036HE  25341.98857573  .00003802  00000+0  13434-2 0  9994", "line2": "2 34019  73.9551  59.4777 0062733 241.3960 301.6895 14.33900685874521"}}, "geometry": {"type": "Point", "coordinates": [82.94021416361424, 55.05062856732906]}}, {"type": "Feature", "properties": {"norad_id": 34021, "name": "COSMOS 2251 DEB", "group": "cosmos-2251-debris", "lat": -74.00366765849466, "lon": 50.956456034708474, "alt_km": 718.3567988032346, "timestamp": "2025-12-08T10:52:03.341809+00:00", "meta": {"OBJECT_NAME": "COSMOS 2251 DEB", "OBJECT_ID": "1993-036HG", "EPOCH": "2025-12-07T21:03:59.290848", "MEAN_MOTION": 14.49920682, "ECCENTRICITY": 0.00208207, "INCLINATION": 74.0355, "RA_OF_ASC_NODE": 138.957, "ARG_OF_PERICENTER": 283.4928, "MEAN_ANOMALY": 227.0425, "EPHEMERIS_TYPE": 0, "CLASSIFICATION_TYPE": "U", "NORAD_CAT_ID": 34021, "ELEMENT_SET_NO": 999, "REV_AT_EPOCH": 88559, "BSTAR": 0.00085952531, "MEAN_MOTION_DOT": 3.306e-05, "MEAN_MOTION_DDOT": 0}, "tle": {"line1": "1 34021U 93036HG  25341.87776957  .00003306  00000+0  85953-3 0  9996", "line2": "2 34021  74.0355 138.9570 0020820 283.4928 227.0425 14.49920682885599"}}, "geometry": {"type": "Point", "coordinates": [50.956456034708474, -74.00366765849466]}}, {"type": "Feature", "properties": {"norad_id": 34022, "name": "COSMOS 2251 DEB", "group": "cosmos-2251-debris", "lat": -69.01310189434193, "lon": 146.8818267388777, "alt_km": 768.3486889700644, "timestamp": "2025-12-08T10:52:03.341819+00:00", "meta": {"OBJECT_NAME": "COSMOS 2251 DEB", "OBJECT_ID": "1993-036HH", "EPOCH": "2025-12-07T22:21:17.415648", "MEAN_MOTION": 14.38950948, "ECCENTRICITY": 0.00225384, "INCLINATION": 74.054, "RA_OF_ASC_NODE": 279.6544, "ARG_OF_PERICENTER": 345.4779, "MEAN_ANOMALY": 91.2382, "EPHEMERIS_TYPE": 0, "CLASSIFICATION_TYPE": "U", "NORAD_CAT_ID": 34022, "ELEMENT_SET_NO": 999, "REV_AT_EPOCH": 88126, "BSTAR": 0.00041480256, "MEAN_MOTION_DOT": 1.257e-05, "MEAN_MOTION_DDOT": 0}, "tle": {"line1": "1 34022U 93036HH  25341.93145157  .00001257  00000+0  41480-3 0  9996", "line2": "2 34022  74.0540 279.6544 0022538 345.4779  91.2382 14.38950948881260"}}, "geometry": {"type": "Point", "coordinates": [146.8818267388777, -69.01310189434193]}}, {"type": "Feature", "properties": {"norad_id": 34023, "name": "COSMOS 2251 DEB", "group": "cosmos-2251-debris", "lat": 27.41150304512684, "lon": 71.1337647145446, "alt_km": 767.0646735062855, "timestamp": "2025-12-08T10:52:03.341829+00:00", "meta": {"OBJECT_NAME": "COSMOS 2251 DEB", "OBJECT_ID": "1993-036HJ", "EPOCH": "2025-12-07T21:09:41.953248", "MEAN_MOTION": 14.40545415, "ECCENTRICITY": 0.00182868, "INCLINATION": 74.026, "RA_OF_ASC_NODE": 260.733, "ARG_OF_PERICENTER": 357.1259, "MEAN_ANOMALY": 73.6651, "EPHEMERIS_TYPE": 0, "CLASSIFICATION_TYPE": "U", "NORAD_CAT_ID": 34023, "ELEMENT_SET_NO": 999, "REV_AT_EPOCH": 88144, "BSTAR": 0.00066844038, "MEAN_MOTION_DOT": 2.107e-05, "MEAN_MOTION_DDOT": 0}, "tle": {"line1": "1 34023U 93036HJ  25341.88173557  .00002107  00000+0  66844-3 0  9992", "line2": "2 34023  74.0260 260.7330 0018286 357.1259  73.6651 14.40545415881447"}}, "geometry": {"type": "Point", "coordinates": [71.1337647145446, 27.41150304512684]}}, {"type": "Feature", "properties": {"norad_id": 34024, "name": "COSMOS 2251 DEB", "group": "cosmos-2251-debris", "lat": -56.51327131829639, "lon": 169.47175579455242, "alt_km": 791.1078440834381, "timestamp": "2025-12-08T10:52:03.341839+00:00", "meta": {"OBJECT_NAME": "COSMOS 2251 DEB", "OBJECT_ID": "1993-036HK", "EPOCH": "2025-12-07T23:58:28.625088", "MEAN_MOTION": 14.35387369, "ECCENTRICITY": 0.00208179, "INCLINATION": 74.0462, "RA_OF_ASC_NODE": 324.6831, "ARG_OF_PERICENTER": 16.6085, "MEAN_ANOMALY": 39.2584, "EPHEMERIS_TYPE": 0, "CLASSIFICATION_TYPE": "U", "NORAD_CAT_ID": 34024, "ELEMENT_SET_NO": 999, "REV_AT_EPOCH": 87956, "BSTAR": 0.0003117637, "MEAN_MOTION_DOT": 8.71e-06, "MEAN_MOTION_DDOT": 0}, "tle": {"line1": "1 34024U 93036HK  25341.99894242  .00000871  00000+0  31176-3 0  9992", "line2": "2 34024  74.0462 324.6831 0020817  16.6085  39.2584 14.35387369879564"}}, "geometry": {"type": "Point", "coordinates": [169.47175579455242, -56.51327131829639]}}, {"type": "Feature", "properties": {"norad_id": 34026, "name": "COSMOS 2251 DEB", "group": "cosmos-2251-debris", "lat": 53.28185842505633, "lon": 141.4248687435554, "alt_km": 1009.8083637797072, "timestamp": "2025-12-08T10:52:03.341849+00:00", "meta": {"OBJECT_NAME": "COSMOS 2251 DEB", "OBJECT_ID": "1993-036HM", "EPOCH": "2025-12-07T23:50:10.676832", "MEAN_MOTION": 13.65296951, "ECCENTRICITY": 0.03509363, "INCLINATION": 73.7677, "RA_OF_ASC_NODE": 345.1788, "ARG_OF_PERICENTER": 215.8968, "MEAN_ANOMALY": 173.1469, "EPHEMERIS_TYPE": 0, "CLASSIFICATION_TYPE": "U", "NORAD_CAT_ID": 34026, "ELEMENT_SET_NO": 999, "REV_AT_EPOCH": 83467, "BSTAR": 0.0012730588, "MEAN_MOTION_DOT": 1.552e-05, "MEAN_MOTION_DDOT": 0}, "tle": {"line1": "1 34026U 93036HM  25341.99317913  .00001552  00000+0  12731-2 0  9991", "line2": "2 34026  73.7677 345.1788 0350936 215.8968 173.1469 13.65296951834671"}}, "geometry": {"type": "Point", "coordinates": [141.4248687435554, 53.28185842505633]}}, {"type": "Feature", "properties": {"norad_id": 34028, "name": "COSMOS 2251 DEB", "group": "cosmos-2251-debris", "lat": 64.28273879559389, "lon": 136.93423247078096, "alt_km": 791.7311956177937, "timestamp": "2025-12-08T10:52:03.341859+00:00", "meta": {"OBJECT_NAME": "COSMOS 2251 DEB", "OBJECT_ID": "1993-036HP", "EPOCH": "2025-12-07T18:48:40.065120", "MEAN_MOTION": 13.20618681, "ECCENTRICITY": 0.05438801, "INCLINATION": 73.8836, "RA_OF_ASC_NODE": 354.8488, "ARG_OF_PERICENTER": 133.5438, "MEAN_ANOMALY": 39.4577, "EPHEMERIS_TYPE": 0, "CLASSIFICATION_TYPE": "U", "NORAD_CAT_ID": 34028, "ELEMENT_SET_NO": 999, "REV_AT_EPOCH": 80942, "BSTAR": 0.00032235214, "MEAN_MOTION_DOT": 2.68e-06, "MEAN_MOTION_DDOT": 0}, "tle": {"line1": "1 34028U 93036HP  25341.78379705  .00000268  00000+0  32235-3 0  9992", "line2": "2 34028  73.8836 354.8488 0543880 133.5438  39.4577 13.20618681809423"}}, "geometry": {"type": "Point", "coordinates": [136.93423247078096, 64.28273879559389]}}]}